*******************************************************************************
Ephemeris / PORT_LOGIN Sun Nov 27 10:14:10 2011 Pasadena, USA    / Horizons    
*******************************************************************************
Target body name: Phoebe (609)                    {source: SAT317}
Center body name: Solar System Barycenter (0)     {source: DE405}
Center-site name: BODY CENTER
*******************************************************************************
Start time      : A.D. 2001-Jan-01 10:00:00.0000 CT 
Stop  time      : A.D. 2001-Jan-02 00:00:00.0000 CT 
Step-size       : 60 minutes
*******************************************************************************
Center geodetic : 0.00000000,0.00000000,0.0000000 {E-lon(deg),Lat(deg),Alt(km)}
Center cylindric: 0.00000000,0.00000000,0.0000000 {E-lon(deg),Dxy(km),Dz(km)}
Center radii    : (undefined)                                                  
Output units    : AU-D                                                         
Output format   : 03
Reference frame : ICRF/J2000.0                                                 
Output type     : GEOMETRIC cartesian states
Coordinate systm: Earth Mean Equator and Equinox of Reference Epoch            
*******************************************************************************
JDCT 
   X     Y     Z
   VX    VY    VZ
   LT    RG    RR
*******************************************************************************
$$SOE
2451910.916666667 = A.D. 2001-Jan-01 10:00:00.0000 (CT)
   4.759312292415199E+00  7.278756157760554E+00  2.794269245171296E+00
  -5.428963347420121E-03  1.657752644804410E-03  9.151850046296196E-04
   5.275653386280846E-02  9.134510677391633E+00 -1.227704669360353E-03
2451910.958333333 = A.D. 2001-Jan-01 11:00:00.0000 (CT)
   4.759086073519900E+00  7.278825229820293E+00  2.794307378950720E+00
  -5.429543630207478E-03  1.657706264066267E-03  9.152364267832275E-04
   5.275623839823896E-02  9.134459519287278E+00 -1.227884296059882E-03
2451911.000000000 = A.D. 2001-Jan-01 12:00:00.0000 (CT)
   4.758859830445744E+00  7.278894299952679E+00  2.794345514875120E+00
  -5.430123932497824E-03  1.657660131940162E-03  9.152879635422210E-04
   5.275594289047449E-02  9.134408353703943E+00 -1.228063660059149E-03
2451911.041666667 = A.D. 2001-Jan-01 13:00:00.0000 (CT)
   4.758633563191923E+00  7.278963368168075E+00  2.794383652949273E+00
  -5.430704254141586E-03  1.657614248518077E-03  9.153396149275522E-04
   5.275564733957835E-02  9.134357180652589E+00 -1.228242761179042E-03
2451911.083333333 = A.D. 2001-Jan-01 14:00:00.0000 (CT)
   4.758407271757632E+00  7.279032434476845E+00  2.794421793177956E+00
  -5.431284594989157E-03  1.657568613891888E-03  9.153913809601702E-04
   5.275535174561375E-02  9.134306000144166E+00 -1.228421599240519E-03
2451911.125000000 = A.D. 2001-Jan-01 15:00:00.0000 (CT)
   4.758180956142076E+00  7.279101498889355E+00  2.794459935565946E+00
  -5.431864954890887E-03  1.657523228153363E-03  9.154432616610197E-04
   5.275505610864405E-02  9.134254812189640E+00 -1.228600174064616E-03
2451911.166666667 = A.D. 2001-Jan-01 16:00:00.0000 (CT)
   4.757954616344462E+00  7.279170561415981E+00  2.794498080118021E+00
  -5.432445333697082E-03  1.657478091394167E-03  9.154952570510408E-04
   5.275476042873263E-02  9.134203616799985E+00 -1.228778485472433E-03
2451911.208333333 = A.D. 2001-Jan-01 17:00:00.0000 (CT)
   4.757728252364007E+00  7.279239622067098E+00  2.794536226838960E+00
  -5.433025731258006E-03  1.657433203705858E-03  9.155473671511687E-04
   5.275446470594290E-02  9.134152413986181E+00 -1.228956533285143E-03
2451911.250000000 = A.D. 2001-Jan-01 18:00:00.0000 (CT)
   4.757501864199932E+00  7.279308680853084E+00  2.794574375733544E+00
  -5.433606147423881E-03  1.657388565179891E-03  9.155995919823326E-04
   5.275416894033828E-02  9.134101203759208E+00 -1.229134317323988E-03
2451911.291666667 = A.D. 2001-Jan-01 19:00:00.0000 (CT)
   4.757275451851465E+00  7.279377737784325E+00  2.794612526806552E+00
  -5.434186582044873E-03  1.657344175907618E-03  9.156519315654559E-04
   5.275387313198231E-02  9.134049986130069E+00 -1.229311837410273E-03
2451911.333333333 = A.D. 2001-Jan-01 20:00:00.0000 (CT)
   4.757049015317842E+00  7.279446792871206E+00  2.794650680062768E+00
  -5.434767034971109E-03  1.657300035980289E-03  9.157043859214549E-04
   5.275357728093851E-02  9.133998761109760E+00 -1.229489093365373E-03
2451911.375000000 = A.D. 2001-Jan-01 21:00:00.0000 (CT)
   4.756822554598299E+00  7.279515846124120E+00  2.794688835506974E+00
  -5.435347506052666E-03  1.657256145489054E-03  9.157569550712385E-04
   5.275328138727046E-02  9.133947528709292E+00 -1.229666085010724E-03
2451911.416666667 = A.D. 2001-Jan-01 22:00:00.0000 (CT)
   4.756596069692087E+00  7.279584897553462E+00  2.794726993143952E+00
  -5.435927995139570E-03  1.657212504524964E-03  9.158096390357086E-04
   5.275298545104178E-02  9.133896288939683E+00 -1.229842812167828E-03
2451911.458333333 = A.D. 2001-Jan-01 23:00:00.0000 (CT)
   4.756369560598456E+00  7.279653947169632E+00  2.794765152978488E+00
  -5.436508502081793E-03  1.657169113178970E-03  9.158624378357587E-04
   5.275268947231618E-02  9.133845041811954E+00 -1.230019274658246E-03
2451911.500000000 = A.D. 2001-Jan-02 00:00:00.0000 (CT)
   4.756143027316667E+00  7.279722994983030E+00  2.794803315015367E+00
  -5.437089026729260E-03  1.657125971541925E-03  9.159153514922728E-04
   5.275239345115736E-02  9.133793787337140E+00 -1.230195472303602E-03
$$EOE
*******************************************************************************
Coordinate system description:

  Earth Mean Equator and Equinox of Reference Epoch

    Reference epoch: J2000.0
    xy-plane: plane of the Earth's mean equator at the reference epoch
    x-axis  : out along ascending node of instantaneous plane of the Earth's
              orbit and the Earth's mean equator at the reference epoch
    z-axis  : along the Earth mean north pole at the reference epoch

Symbol meaning [1 AU=149597870.691 km, 1 day=86400.0 s]:

    JDCT     Epoch Julian Date, Coordinate Time
      X      x-component of position vector (AU)                               
      Y      y-component of position vector (AU)                               
      Z      z-component of position vector (AU)                               
      VX     x-component of velocity vector (AU/day)                           
      VY     y-component of velocity vector (AU/day)                           
      VZ     z-component of velocity vector (AU/day)                           
      LT     One-way down-leg Newtonian light-time (day)                       
      RG     Range; distance from coordinate center (AU)                       
      RR     Range-rate; radial velocity wrt coord. center (AU/day)            

Geometric states/elements have no aberration corrections applied.

 Computations by ...
     Solar System Dynamics Group, Horizons On-Line Ephemeris System
     4800 Oak Grove Drive, Jet Propulsion Laboratory
     Pasadena, CA  91109   USA
     Information: http://ssd.jpl.nasa.gov/
     Connect    : telnet://ssd.jpl.nasa.gov:6775  (via browser)
                  telnet ssd.jpl.nasa.gov 6775    (via command-line)
     Author     : Jon.Giorgini@jpl.nasa.gov
*******************************************************************************
